XRISM                   
1 57800U 23137A   23261.43643670  .00004685  00000+0  38167-3 0  9993
2 57800  31.0040 304.1924 0009911  30.2678 329.8527 14.97902715  1719
